[{"OBJECT_NAME":"TIANQI-23","OBJECT_ID":"2023-135C","EPOCH":"2026-03-09T20:31:13.186272","MEAN_MOTION":14.2309434,"ECCENTRICITY":0.00136094,"INCLINATION":49.9718,"RA_OF_ASC_NODE":210.4766,"ARG_OF_PERICENTER":271.4646,"MEAN_ANOMALY":88.4707,"EPHEMERIS_TYPE":0,"CLASSIFICATION_TYPE":"U","NORAD_CAT_ID":57794,"ELEMENT_SET_NO":999,"REV_AT_EPOCH":13048,"BSTAR":0.00026414029,"MEAN_MOTION_DOT":4.41e-6,"MEAN_MOTION_DDOT":0},{"OBJECT_NAME":"CZ-4B DEB","OBJECT_ID":"1999-057NF","EPOCH":"2026-03-08T02:59:06.102816","MEAN_MOTION":14.43200854,"ECCENTRICITY":0.00971388,"INCLINATION":98.631,"RA_OF_ASC_NODE":130.2732,"ARG_OF_PERICENTER":131.1723,"MEAN_ANOMALY":229.7897,"EPHEMERIS_TYPE":0,"CLASSIFICATION_TYPE":"U","NORAD_CAT_ID":28075,"ELEMENT_SET_NO":999,"REV_AT_EPOCH":71961,"BSTAR":0.00043218195,"MEAN_MOTION_DOT":1.491e-5,"MEAN_MOTION_DDOT":0}]
